{
  "type": "FeatureCollection",
  "metadata": {
    "title": "ResQZone Multi-Hazard Zones - Pan India",
    "generated_at": "2026-09-18T19:38:50.982799+00:00",
    "crs": "CRS84"
  },
  "features": [
    {
      "type": "Feature",
      "geometry": {
        "type": "Polygon",
        "coordinates": [
          [
            [
              79.558,
              30.565
            ],
            [
              79.572,
              30.562
            ],
            [
              79.574,
              30.551
            ],
            [
              79.563,
              30.548
            ],
            [
              79.555,
              30.556
            ],
            [
              79.558,
              30.565
            ]
          ]
        ]
      },
      "properties": {
        "id": "HAZ-01",
        "name": "Joshimath Core Subsidence Red Zone",
        "district": "Chamoli",
        "hazard_type": "SUBSIDENCE",
        "severity": "CRITICAL",
        "risk_score": 0.94,
        "confidence_score": 0.91,
        "area_sqkm": 2.85,
        "drivers": {
          "primary_vector": "SUBSIDENCE",
          "district": "Chamoli",
          "severity": "CRITICAL"
        },
        "color": "#EF4444",
        "warning_message": "Active ground fissures detected along Manohar Bagh and Sunil wards."
      }
    },
    {
      "type": "Feature",
      "geometry": {
        "type": "Polygon",
        "coordinates": [
          [
            [
              79.62,
              30.49
            ],
            [
              79.695,
              30.48
            ],
            [
              79.71,
              30.495
            ],
            [
              79.635,
              30.51
            ],
            [
              79.62,
              30.49
            ]
          ]
        ]
      },
      "properties": {
        "id": "HAZ-02",
        "name": "Raini-Tapovan GLOF & Flash Flood Corridor",
        "district": "Chamoli",
        "hazard_type": "GLOF",
        "severity": "CRITICAL",
        "risk_score": 0.91,
        "confidence_score": 0.91,
        "area_sqkm": 4.1,
        "drivers": {
          "primary_vector": "GLOF",
          "district": "Chamoli",
          "severity": "CRITICAL"
        },
        "color": "#DC2626",
        "warning_message": "Rishiganga and Dhauliganga confluence flash flood inundation threat."
      }
    },
    {
      "type": "Feature",
      "geometry": {
        "type": "Polygon",
        "coordinates": [
          [
            [
              76.16,
              11.53
            ],
            [
              76.195,
              11.545
            ],
            [
              76.198,
              11.57
            ],
            [
              76.175,
              11.565
            ],
            [
              76.155,
              11.54
            ],
            [
              76.16,
              11.53
            ]
          ]
        ]
      },
      "properties": {
        "id": "HAZ-WY-01",
        "name": "Chooralmala-Mundakkai Debris Avalanche Red Zone",
        "district": "Wayanad",
        "hazard_type": "LANDSLIDE",
        "severity": "CRITICAL",
        "risk_score": 0.98,
        "confidence_score": 0.91,
        "area_sqkm": 5.4,
        "drivers": {
          "primary_vector": "LANDSLIDE",
          "district": "Wayanad",
          "severity": "CRITICAL"
        },
        "color": "#EF4444",
        "warning_message": "Severe slope collapse with high-speed boulder and slurry debris avalanche."
      }
    },
    {
      "type": "Feature",
      "geometry": {
        "type": "Polygon",
        "coordinates": [
          [
            [
              76.14,
              11.52
            ],
            [
              76.17,
              11.535
            ],
            [
              76.165,
              11.555
            ],
            [
              76.135,
              11.535
            ],
            [
              76.14,
              11.52
            ]
          ]
        ]
      },
      "properties": {
        "id": "HAZ-WY-02",
        "name": "Iruvaizhinji River Flash Surge Corridor",
        "district": "Wayanad",
        "hazard_type": "FLASH_FLOOD",
        "severity": "HIGH",
        "risk_score": 0.85,
        "confidence_score": 0.91,
        "area_sqkm": 3.2,
        "drivers": {
          "primary_vector": "FLASH_FLOOD",
          "district": "Wayanad",
          "severity": "HIGH"
        },
        "color": "#F97316",
        "warning_message": "Rapid river swell threatening bridges and low-lying tea estate colonies."
      }
    },
    {
      "type": "Feature",
      "geometry": {
        "type": "Polygon",
        "coordinates": [
          [
            [
              76.87,
              31.93
            ],
            [
              76.9,
              31.935
            ],
            [
              76.905,
              31.955
            ],
            [
              76.875,
              31.95
            ],
            [
              76.87,
              31.93
            ]
          ]
        ]
      },
      "properties": {
        "id": "HAZ-MD-01",
        "name": "Kotropi Massive Landslide Scar Zone",
        "district": "Mandi",
        "hazard_type": "LANDSLIDE",
        "severity": "CRITICAL",
        "risk_score": 0.95,
        "confidence_score": 0.91,
        "area_sqkm": 3.8,
        "drivers": {
          "primary_vector": "LANDSLIDE",
          "district": "Mandi",
          "severity": "CRITICAL"
        },
        "color": "#EF4444",
        "warning_message": "Recurrent structural highway collapse zone with massive regolith slide."
      }
    },
    {
      "type": "Feature",
      "geometry": {
        "type": "Polygon",
        "coordinates": [
          [
            [
              76.92,
              31.69
            ],
            [
              77.06,
              31.66
            ],
            [
              77.07,
              31.68
            ],
            [
              76.93,
              31.72
            ],
            [
              76.92,
              31.69
            ]
          ]
        ]
      },
      "properties": {
        "id": "HAZ-MD-02",
        "name": "Beas River Gorge Inundation Zone",
        "district": "Mandi",
        "hazard_type": "FLASH_FLOOD",
        "severity": "HIGH",
        "risk_score": 0.87,
        "confidence_score": 0.91,
        "area_sqkm": 4.5,
        "drivers": {
          "primary_vector": "FLASH_FLOOD",
          "district": "Mandi",
          "severity": "HIGH"
        },
        "color": "#F97316",
        "warning_message": "Pandoh Dam high-discharge flood corridor exceeding red danger marks."
      }
    },
    {
      "type": "Feature",
      "geometry": {
        "type": "Polygon",
        "coordinates": [
          [
            [
              73.475,
              18.01
            ],
            [
              73.495,
              18.015
            ],
            [
              73.5,
              18.03
            ],
            [
              73.48,
              18.028
            ],
            [
              73.475,
              18.01
            ]
          ]
        ]
      },
      "properties": {
        "id": "HAZ-RG-01",
        "name": "Taliye Cliff Failure Risk Polygon",
        "district": "Raigad",
        "hazard_type": "LANDSLIDE",
        "severity": "CRITICAL",
        "risk_score": 0.96,
        "confidence_score": 0.91,
        "area_sqkm": 2.2,
        "drivers": {
          "primary_vector": "LANDSLIDE",
          "district": "Raigad",
          "severity": "CRITICAL"
        },
        "color": "#EF4444",
        "warning_message": "Laterite hillock liquefaction hazard threatening foothill habitations."
      }
    },
    {
      "type": "Feature",
      "geometry": {
        "type": "Polygon",
        "coordinates": [
          [
            [
              73.41,
              18.07
            ],
            [
              73.445,
              18.075
            ],
            [
              73.45,
              18.1
            ],
            [
              73.415,
              18.095
            ],
            [
              73.41,
              18.07
            ]
          ]
        ]
      },
      "properties": {
        "id": "HAZ-RG-02",
        "name": "Savitri River Flash Flood Plain",
        "district": "Raigad",
        "hazard_type": "FLASH_FLOOD",
        "severity": "HIGH",
        "risk_score": 0.89,
        "confidence_score": 0.91,
        "area_sqkm": 4.8,
        "drivers": {
          "primary_vector": "FLASH_FLOOD",
          "district": "Raigad",
          "severity": "HIGH"
        },
        "color": "#F97316",
        "warning_message": "High tide backwater push causing rapid town inundation in Mahad."
      }
    },
    {
      "type": "Feature",
      "geometry": {
        "type": "Polygon",
        "coordinates": [
          [
            [
              95.16,
              27.78
            ],
            [
              95.21,
              27.79
            ],
            [
              95.215,
              27.82
            ],
            [
              95.165,
              27.81
            ],
            [
              95.16,
              27.78
            ]
          ]
        ]
      },
      "properties": {
        "id": "HAZ-DH-01",
        "name": "Brahmaputra Bank Embankment Breach Red Zone",
        "district": "Dhemaji",
        "hazard_type": "RIVER_FLOOD",
        "severity": "CRITICAL",
        "risk_score": 0.95,
        "confidence_score": 0.91,
        "area_sqkm": 8.5,
        "drivers": {
          "primary_vector": "RIVER_FLOOD",
          "district": "Dhemaji",
          "severity": "CRITICAL"
        },
        "color": "#EF4444",
        "warning_message": "Direct erosion and riverbank collapse cutting off Jonai link road."
      }
    },
    {
      "type": "Feature",
      "geometry": {
        "type": "Polygon",
        "coordinates": [
          [
            [
              88.41,
              27.04
            ],
            [
              88.45,
              27.05
            ],
            [
              88.46,
              27.085
            ],
            [
              88.42,
              27.075
            ],
            [
              88.41,
              27.04
            ]
          ]
        ]
      },
      "properties": {
        "id": "HAZ-DJ-01",
        "name": "Teesta Canyon GLOF Inundation Corridor",
        "district": "Darjeeling",
        "hazard_type": "GLOF",
        "severity": "CRITICAL",
        "risk_score": 0.96,
        "confidence_score": 0.91,
        "area_sqkm": 6.2,
        "drivers": {
          "primary_vector": "GLOF",
          "district": "Darjeeling",
          "severity": "CRITICAL"
        },
        "color": "#EF4444",
        "warning_message": "High-velocity glacial surge wave along NH-10 Teesta highway."
      }
    }
  ]
}