{
  "type": "FeatureCollection",
  "metadata": {
    "title": "ResQZone Road Evacuation Network - Pan India",
    "generated_at": "2026-09-18T19:38:50.982799+00:00",
    "crs": "CRS84"
  },
  "features": [
    {
      "type": "Feature",
      "geometry": {
        "type": "LineString",
        "coordinates": [
          [
            79.5681,
            30.5574
          ],
          [
            79.57079999999999,
            30.561300000000003
          ],
          [
            79.5735,
            30.5592
          ]
        ]
      },
      "properties": {
        "id": "ROAD-01",
        "name": "Badrinath National Highway (NH-07)",
        "district": "Chamoli",
        "from_node": "HAB-01",
        "to_node": "SH-01",
        "from_name": "Manohar Bagh Ward",
        "to_name": "Govt Girls Inter College (GGIC)",
        "distance_km": 1.4,
        "speed_limit_kmh": 35.0,
        "base_travel_time_min": 3.5,
        "road_class": "STATE_HIGHWAY",
        "pavement_condition": "GOOD",
        "slope_risk_score": 0.52,
        "hazard_exposure_score": 0.75,
        "is_blocked": false,
        "blocked_reason": null
      }
    },
    {
      "type": "Feature",
      "geometry": {
        "type": "LineString",
        "coordinates": [
          [
            79.5634,
            30.5621
          ],
          [
            79.56845,
            30.563650000000003
          ],
          [
            79.5735,
            30.5592
          ]
        ]
      },
      "properties": {
        "id": "ROAD-02",
        "name": "Joshimath Upper Ring Arterial",
        "district": "Chamoli",
        "from_node": "HAB-02",
        "to_node": "SH-01",
        "from_name": "Sunil Ward (Subsidence Zone)",
        "to_name": "Govt Girls Inter College (GGIC)",
        "distance_km": 2.1,
        "speed_limit_kmh": 35.0,
        "base_travel_time_min": 5.0,
        "road_class": "DISTRICT_ROAD",
        "pavement_condition": "FAIR",
        "slope_risk_score": 0.59,
        "hazard_exposure_score": 0.85,
        "is_blocked": false,
        "blocked_reason": null
      }
    },
    {
      "type": "Feature",
      "geometry": {
        "type": "LineString",
        "coordinates": [
          [
            79.5652,
            30.5528
          ],
          [
            79.57165,
            30.5535
          ],
          [
            79.5781,
            30.5482
          ]
        ]
      },
      "properties": {
        "id": "ROAD-03",
        "name": "Auli Ropeway Evacuation Spur",
        "district": "Chamoli",
        "from_node": "HAB-03",
        "to_node": "SH-03",
        "from_name": "Singhdhar Ground Rupture Sector",
        "to_name": "Auli Road Relief Camp (Army Cantonment)",
        "distance_km": 3.8,
        "speed_limit_kmh": 35.0,
        "base_travel_time_min": 7.5,
        "road_class": "DISTRICT_ROAD",
        "pavement_condition": "GOOD",
        "slope_risk_score": 0.21,
        "hazard_exposure_score": 0.3,
        "is_blocked": false,
        "blocked_reason": null
      }
    },
    {
      "type": "Feature",
      "geometry": {
        "type": "LineString",
        "coordinates": [
          [
            79.5615,
            30.5489
          ],
          [
            79.49715,
            30.49305
          ],
          [
            79.4328,
            30.4312
          ]
        ]
      },
      "properties": {
        "id": "ROAD-04",
        "name": "Pipalkoti Valley Highway Connector",
        "district": "Chamoli",
        "from_node": "HAB-04",
        "to_node": "SH-04",
        "from_name": "Marwari Lower Ward",
        "to_name": "Pipalkoti Polytechnic Transit Base",
        "distance_km": 14.5,
        "speed_limit_kmh": 35.0,
        "base_travel_time_min": 24.0,
        "road_class": "STATE_HIGHWAY",
        "pavement_condition": "GOOD",
        "slope_risk_score": 0.28,
        "hazard_exposure_score": 0.4,
        "is_blocked": false,
        "blocked_reason": null
      }
    },
    {
      "type": "Feature",
      "geometry": {
        "type": "LineString",
        "coordinates": [
          [
            76.1685,
            11.5362
          ],
          [
            76.14675,
            11.5481
          ],
          [
            76.125,
            11.554
          ]
        ]
      },
      "properties": {
        "id": "ROAD-WY-01",
        "name": "Meppadi-Chooralmala Arterial Road",
        "district": "Wayanad",
        "from_node": "HAB-WY-01",
        "to_node": "SH-WY-01",
        "from_name": "Chooralmala Town Center",
        "to_name": "St. Joseph Higher Secondary School Meppadi",
        "distance_km": 4.8,
        "speed_limit_kmh": 35.0,
        "base_travel_time_min": 8.0,
        "road_class": "DISTRICT_ROAD",
        "pavement_condition": "FAIR",
        "slope_risk_score": 0.63,
        "hazard_exposure_score": 0.9,
        "is_blocked": false,
        "blocked_reason": null
      }
    },
    {
      "type": "Feature",
      "geometry": {
        "type": "LineString",
        "coordinates": [
          [
            76.1798,
            11.5491
          ],
          [
            76.1524,
            11.554549999999999
          ],
          [
            76.125,
            11.554
          ]
        ]
      },
      "properties": {
        "id": "ROAD-WY-02",
        "name": "Chooralmala-Mundakkai Bailey Bridge Corridor",
        "district": "Wayanad",
        "from_node": "HAB-WY-02",
        "to_node": "SH-WY-01",
        "from_name": "Mundakkai High Settlement",
        "to_name": "St. Joseph Higher Secondary School Meppadi",
        "distance_km": 6.2,
        "speed_limit_kmh": 35.0,
        "base_travel_time_min": 12.0,
        "road_class": "DISTRICT_ROAD",
        "pavement_condition": "FAIR",
        "slope_risk_score": 0.66,
        "hazard_exposure_score": 0.95,
        "is_blocked": false,
        "blocked_reason": null
      }
    },
    {
      "type": "Feature",
      "geometry": {
        "type": "LineString",
        "coordinates": [
          [
            76.162,
            11.5305
          ],
          [
            76.123,
            11.57375
          ],
          [
            76.084,
            11.611
          ]
        ]
      },
      "properties": {
        "id": "ROAD-WY-03",
        "name": "Vellarmala-Kalpetta Highway Spur",
        "district": "Wayanad",
        "from_node": "HAB-WY-03",
        "to_node": "SH-WY-02",
        "from_name": "Vellarmala School Ward",
        "to_name": "Kalpetta Town Community Relief Hall",
        "distance_km": 11.5,
        "speed_limit_kmh": 35.0,
        "base_travel_time_min": 18.0,
        "road_class": "STATE_HIGHWAY",
        "pavement_condition": "GOOD",
        "slope_risk_score": 0.32,
        "hazard_exposure_score": 0.45,
        "is_blocked": false,
        "blocked_reason": null
      }
    },
    {
      "type": "Feature",
      "geometry": {
        "type": "LineString",
        "coordinates": [
          [
            76.192,
            11.558
          ],
          [
            76.11699999999999,
            11.556000000000001
          ],
          [
            76.042,
            11.548
          ]
        ]
      },
      "properties": {
        "id": "ROAD-WY-04",
        "name": "Attamala-Vythiri Relief Bypass",
        "district": "Wayanad",
        "from_node": "HAB-WY-04",
        "to_node": "SH-WY-03",
        "from_name": "Attamala Tea Plantation Colony",
        "to_name": "Vythiri Govt Higher Secondary Camp",
        "distance_km": 14.0,
        "speed_limit_kmh": 35.0,
        "base_travel_time_min": 22.0,
        "road_class": "DISTRICT_ROAD",
        "pavement_condition": "GOOD",
        "slope_risk_score": 0.35,
        "hazard_exposure_score": 0.5,
        "is_blocked": false,
        "blocked_reason": null
      }
    },
    {
      "type": "Feature",
      "geometry": {
        "type": "LineString",
        "coordinates": [
          [
            76.885,
            31.942
          ],
          [
            76.9115,
            31.83
          ],
          [
            76.938,
            31.712
          ]
        ]
      },
      "properties": {
        "id": "ROAD-MD-01",
        "name": "NH-154 Mandi-Kotropi Bypass",
        "district": "Mandi",
        "from_node": "HAB-MD-01",
        "to_node": "SH-MD-01",
        "from_name": "Kotropi NH-154 Slip Zone",
        "to_name": "Mandi District Sports Complex Relief Center",
        "distance_km": 16.5,
        "speed_limit_kmh": 35.0,
        "base_travel_time_min": 26.0,
        "road_class": "STATE_HIGHWAY",
        "pavement_condition": "FAIR",
        "slope_risk_score": 0.62,
        "hazard_exposure_score": 0.88,
        "is_blocked": false,
        "blocked_reason": null
      }
    },
    {
      "type": "Feature",
      "geometry": {
        "type": "LineString",
        "coordinates": [
          [
            77.052,
            31.671
          ],
          [
            77.042,
            31.680999999999997
          ],
          [
            77.032,
            31.685
          ]
        ]
      },
      "properties": {
        "id": "ROAD-MD-02",
        "name": "Pandoh Dam High-Spur Arterial",
        "district": "Mandi",
        "from_node": "HAB-MD-02",
        "to_node": "SH-MD-02",
        "from_name": "Pandoh Dam Downstream Ward",
        "to_name": "Pandoh Govt Senior Secondary Safe Base",
        "distance_km": 3.2,
        "speed_limit_kmh": 35.0,
        "base_travel_time_min": 6.0,
        "road_class": "DISTRICT_ROAD",
        "pavement_condition": "GOOD",
        "slope_risk_score": 0.49,
        "hazard_exposure_score": 0.7,
        "is_blocked": false,
        "blocked_reason": null
      }
    },
    {
      "type": "Feature",
      "geometry": {
        "type": "LineString",
        "coordinates": [
          [
            76.715,
            31.815
          ],
          [
            76.8035,
            31.677500000000002
          ],
          [
            76.892,
            31.534
          ]
        ]
      },
      "properties": {
        "id": "ROAD-MD-03",
        "name": "Dharampur-Sundernagar Connector",
        "district": "Mandi",
        "from_node": "HAB-MD-03",
        "to_node": "SH-MD-03",
        "from_name": "Dharampur Market Lowlands",
        "to_name": "Sundernagar Community Relief Hall",
        "distance_km": 18.0,
        "speed_limit_kmh": 35.0,
        "base_travel_time_min": 25.0,
        "road_class": "DISTRICT_ROAD",
        "pavement_condition": "GOOD",
        "slope_risk_score": 0.28,
        "hazard_exposure_score": 0.4,
        "is_blocked": false,
        "blocked_reason": null
      }
    },
    {
      "type": "Feature",
      "geometry": {
        "type": "LineString",
        "coordinates": [
          [
            73.486,
            18.021
          ],
          [
            73.4605,
            18.0595
          ],
          [
            73.435,
            18.092
          ]
        ]
      },
      "properties": {
        "id": "ROAD-RG-01",
        "name": "Mahad-Taliye Rural Access Road",
        "district": "Raigad",
        "from_node": "HAB-RG-01",
        "to_node": "SH-RG-01",
        "from_name": "Taliye Village Cliff Foot",
        "to_name": "Mahad Municipal High School Safe Shelter",
        "distance_km": 8.5,
        "speed_limit_kmh": 35.0,
        "base_travel_time_min": 15.0,
        "road_class": "DISTRICT_ROAD",
        "pavement_condition": "FAIR",
        "slope_risk_score": 0.59,
        "hazard_exposure_score": 0.85,
        "is_blocked": false,
        "blocked_reason": null
      }
    },
    {
      "type": "Feature",
      "geometry": {
        "type": "LineString",
        "coordinates": [
          [
            73.424,
            18.084
          ],
          [
            73.35400000000001,
            18.1705
          ],
          [
            73.284,
            18.251
          ]
        ]
      },
      "properties": {
        "id": "ROAD-RG-02",
        "name": "Savitri Flood Bypass to Mangaon",
        "district": "Raigad",
        "from_node": "HAB-RG-02",
        "to_node": "SH-RG-02",
        "from_name": "Mahad Savitri Riverbank",
        "to_name": "Mangaon Disaster Evacuation Hall",
        "distance_km": 14.2,
        "speed_limit_kmh": 35.0,
        "base_travel_time_min": 20.0,
        "road_class": "DISTRICT_ROAD",
        "pavement_condition": "GOOD",
        "slope_risk_score": 0.45,
        "hazard_exposure_score": 0.65,
        "is_blocked": false,
        "blocked_reason": null
      }
    },
    {
      "type": "Feature",
      "geometry": {
        "type": "LineString",
        "coordinates": [
          [
            95.185,
            27.795
          ],
          [
            95.19,
            27.803
          ],
          [
            95.195,
            27.805
          ]
        ]
      },
      "properties": {
        "id": "ROAD-DH-01",
        "name": "NH-515 Jonai Flood Relief Highway",
        "district": "Dhemaji",
        "from_node": "HAB-DH-01",
        "to_node": "SH-DH-01",
        "from_name": "Jonai Brahmaputra Bank Ward",
        "to_name": "Jonai College High-Ground Relief Camp",
        "distance_km": 3.5,
        "speed_limit_kmh": 35.0,
        "base_travel_time_min": 6.0,
        "road_class": "STATE_HIGHWAY",
        "pavement_condition": "GOOD",
        "slope_risk_score": 0.56,
        "hazard_exposure_score": 0.8,
        "is_blocked": false,
        "blocked_reason": null
      }
    },
    {
      "type": "Feature",
      "geometry": {
        "type": "LineString",
        "coordinates": [
          [
            94.721,
            27.592
          ],
          [
            94.7265,
            27.5995
          ],
          [
            94.732,
            27.601
          ]
        ]
      },
      "properties": {
        "id": "ROAD-DH-02",
        "name": "Silapathar Embankment Crest Arterial",
        "district": "Dhemaji",
        "from_node": "HAB-DH-02",
        "to_node": "SH-DH-02",
        "from_name": "Silapathar Lowland Cluster",
        "to_name": "Silapathar Town Hall Safe Shelter",
        "distance_km": 4.1,
        "speed_limit_kmh": 35.0,
        "base_travel_time_min": 7.0,
        "road_class": "DISTRICT_ROAD",
        "pavement_condition": "GOOD",
        "slope_risk_score": 0.52,
        "hazard_exposure_score": 0.75,
        "is_blocked": false,
        "blocked_reason": null
      }
    },
    {
      "type": "Feature",
      "geometry": {
        "type": "LineString",
        "coordinates": [
          [
            88.435,
            27.065
          ],
          [
            88.45349999999999,
            27.0665
          ],
          [
            88.472,
            27.062
          ]
        ]
      },
      "properties": {
        "id": "ROAD-DJ-01",
        "name": "NH-10 Teesta Valley High-Priority Route",
        "district": "Darjeeling",
        "from_node": "HAB-DJ-01",
        "to_node": "SH-DJ-01",
        "from_name": "Teesta Bazaar Low Basin",
        "to_name": "Kalimpong Town Hall Safe Base",
        "distance_km": 7.8,
        "speed_limit_kmh": 35.0,
        "base_travel_time_min": 14.0,
        "road_class": "STATE_HIGHWAY",
        "pavement_condition": "FAIR",
        "slope_risk_score": 0.62,
        "hazard_exposure_score": 0.88,
        "is_blocked": false,
        "blocked_reason": null
      }
    },
    {
      "type": "Feature",
      "geometry": {
        "type": "LineString",
        "coordinates": [
          [
            88.291,
            26.882
          ],
          [
            88.276,
            26.966500000000003
          ],
          [
            88.261,
            27.045
          ]
        ]
      },
      "properties": {
        "id": "ROAD-DJ-02",
        "name": "Kurseong-Darjeeling Ridge Highway",
        "district": "Darjeeling",
        "from_node": "HAB-DJ-02",
        "to_node": "SH-DJ-02",
        "from_name": "Paglajhora Slide Exposure Ward",
        "to_name": "Darjeeling Gymkhana Elevated Relief Camp",
        "distance_km": 12.4,
        "speed_limit_kmh": 35.0,
        "base_travel_time_min": 21.0,
        "road_class": "STATE_HIGHWAY",
        "pavement_condition": "GOOD",
        "slope_risk_score": 0.42,
        "hazard_exposure_score": 0.6,
        "is_blocked": false,
        "blocked_reason": null
      }
    }
  ]
}